0 TITAN 3C TRANSTAGE DEB
1 01680U 65082AT  13280.13631571  .00000234  00000-0  38029-4 0  9105
2 01680 032.2565 251.7248 0022144 219.4630 140.4405 14.62760662555101
0 TITAN 3C TRANSTAGE DEB
1 01680U 65082AT  13282.32021782  .00000290  00000-0  48859-4 0  9110
2 01680 032.2564 238.8174 0022193 238.7945 121.0527 14.62763027555424
0 TITAN 3C TRANSTAGE DEB
1 01680U 65082AT  13287.16575927  .00000337  00000-0  58008-4 0  9133
2 01680 032.2558 210.1792 0022033 281.9597 077.8580 14.62765108556130
0 TITAN 3C TRANSTAGE DEB
1 01680U 65082AT  13289.21317658  .00000339  00000-0  58326-4 0  9142
2 01680 032.2556 198.0782 0021929 300.3061 059.5418 14.62767266556433
0 TITAN 3C TRANSTAGE DEB
1 01680U 65082AT  13292.07956305  .00000358  00000-0  62042-4 0  9150
2 01680 032.2552 181.1366 0021773 326.0811 033.8444 14.62769181556853
0 TITAN 3C TRANSTAGE DEB
1 01680U 65082AT  13294.12698290  .00000346  00000-0  59803-4 0  9163
2 01680 032.2551 169.0353 0021685 344.5799 015.4187 14.62770833557155
